start=new Date('2022-10-11T00:00:00.000Z').valueOf();
sats=[{"TLE_LINE1":"1 47384U 21005AM  22283.25437346  .00000601  00000-0  59211-4 0  9994","COUNTRY_CODE":"US","PERIOD":"95.592","EPHEMERIS_TYPE":"0","MEAN_MOTION":"15.06402116","MEAN_MOTION_DDOT":"0.0000000000000","INCLINATION":"53.0541","RCS_SIZE":"LARGE","ELEMENT_SET_NO":"999","MEAN_ELEMENT_THEORY":"SGP4","ECCENTRICITY":"0.00014040","EPOCH":"2022-10-10T06:06:17.866944","CENTER_NAME":"EARTH","RA_OF_ASC_NODE":"227.3195","REV_AT_EPOCH":"9559","FILE":"3600948","MEAN_ANOMALY":"280.8488","DECAY_DATE":null,"SEMIMAJOR_AXIS":"6925.342","TIME_SYSTEM":"UTC","SITE":"AFETR","NORAD_CAT_ID":"47384","TLE_LINE2":"2 47384  53.0541 227.3195 0001404  79.2659 280.8488 15.06402116 95594","OBJECT_NAME":"STARLINK-2104","APOAPSIS":"548.179","REF_FRAME":"TEME","OBJECT_ID":"2021-005AM","GP_ID":"214674810","CLASSIFICATION_TYPE":"U","BSTAR":"0.00005921100000","ARG_OF_PERICENTER":"79.2659","OBJECT_TYPE":"PAYLOAD","PERIAPSIS":"546.235","LAUNCH_DATE":"2021-01-20","MEAN_MOTION_DOT":"0.00000601"},{"ARG_OF_PERICENTER":"75.2967","MEAN_MOTION_DOT":"0.00000695","LAUNCH_DATE":"2021-01-20","PERIAPSIS":"546.193","OBJECT_TYPE":"PAYLOAD","GP_ID":"214683265","OBJECT_ID":"2021-005AN","REF_FRAME":"TEME","APOAPSIS":"548.261","BSTAR":"0.00006554700000","CLASSIFICATION_TYPE":"U","SITE":"AFETR","NORAD_CAT_ID":"47385","TLE_LINE2":"2 47385  53.0548 224.4225 0001493  75.2967 284.8187 15.06395469 96290","OBJECT_NAME":"STARLINK-2105","DECAY_DATE":null,"MEAN_ANOMALY":"284.8187","FILE":"3601205","TIME_SYSTEM":"UTC","SEMIMAJOR_AXIS":"6925.362","EPOCH":"2022-10-10T20:20:48.253344","ECCENTRICITY":"0.00014930","REV_AT_EPOCH":"9629","RA_OF_ASC_NODE":"224.4225","CENTER_NAME":"EARTH","MEAN_ELEMENT_THEORY":"SGP4","PERIOD":"95.592","COUNTRY_CODE":"US","ELEMENT_SET_NO":"999","RCS_SIZE":"LARGE","MEAN_MOTION_DDOT":"0.0000000000000","INCLINATION":"53.0548","MEAN_MOTION":"15.06395469","EPHEMERIS_TYPE":"0","TLE_LINE1":"1 47385U 21005AN  22283.84778071  .00000695  00000-0  65547-4 0  9995"},{"BSTAR":"0.00006726500000","CLASSIFICATION_TYPE":"U","OBJECT_ID":"2021-005AP","GP_ID":"214715828","REF_FRAME":"TEME","APOAPSIS":"548.258","MEAN_MOTION_DOT":"0.00000720","LAUNCH_DATE":"2021-01-20","PERIAPSIS":"546.204","OBJECT_TYPE":"PAYLOAD","ARG_OF_PERICENTER":"85.8826","SEMIMAJOR_AXIS":"6925.366","TIME_SYSTEM":"UTC","DECAY_DATE":null,"MEAN_ANOMALY":"274.2333","FILE":"3601747","TLE_LINE2":"2 47386  53.0545 224.2945 0001483  85.8826 274.2333 15.06394331 95691","OBJECT_NAME":"STARLINK-2106","SITE":"AFETR","NORAD_CAT_ID":"47386","MEAN_ELEMENT_THEORY":"SGP4","REV_AT_EPOCH":"9569","RA_OF_ASC_NODE":"224.2945","CENTER_NAME":"EARTH","EPOCH":"2022-10-10T21:03:16.242048","ECCENTRICITY":"0.00014830","TLE_LINE1":"1 47386U 21005AP  22283.87727132  .00000720  00000-0  67265-4 0  9999","ELEMENT_SET_NO":"999","RCS_SIZE":"LARGE","MEAN_MOTION_DDOT":"0.0000000000000","INCLINATION":"53.0545","EPHEMERIS_TYPE":"0","MEAN_MOTION":"15.06394331","PERIOD":"95.592","COUNTRY_CODE":"US"},{"REF_FRAME":"TEME","OBJECT_ID":"2021-005AQ","GP_ID":"214716579","APOAPSIS":"548.291","CLASSIFICATION_TYPE":"U","BSTAR":"0.00005786600000","ARG_OF_PERICENTER":"71.0769","MEAN_MOTION_DOT":"0.00000580","OBJECT_TYPE":"PAYLOAD","LAUNCH_DATE":"2021-01-20","PERIAPSIS":"546.171","MEAN_ANOMALY":"289.0386","DECAY_DATE":null,"FILE":"3601747","TIME_SYSTEM":"UTC","SEMIMAJOR_AXIS":"6925.366","SITE":"AFETR","NORAD_CAT_ID":"47387","TLE_LINE2":"2 47387  53.0552 255.2425 0001531  71.0769 289.0386 15.06394239 95233","OBJECT_NAME":"STARLINK-2108","MEAN_ELEMENT_THEORY":"SGP4","EPOCH":"2022-10-10T15:56:44.947968","ECCENTRICITY":"0.00015310","RA_OF_ASC_NODE":"255.2425","REV_AT_EPOCH":"9523","CENTER_NAME":"EARTH","TLE_LINE1":"1 47387U 21005AQ  22283.66440912  .00000580  00000-0  57866-4 0  9995","PERIOD":"95.593","COUNTRY_CODE":"US","RCS_SIZE":"LARGE","ELEMENT_SET_NO":"999","EPHEMERIS_TYPE":"0","MEAN_MOTION":"15.06394239","MEAN_MOTION_DDOT":"0.0000000000000","INCLINATION":"53.0552"},{"CENTER_NAME":"EARTH","RA_OF_ASC_NODE":"256.3652","REV_AT_EPOCH":"9519","ECCENTRICITY":"0.00016310","EPOCH":"2022-10-10T09:55:48.932256","MEAN_ELEMENT_THEORY":"SGP4","EPHEMERIS_TYPE":"0","MEAN_MOTION":"15.06404119","MEAN_MOTION_DDOT":"0.0000000000000","INCLINATION":"53.0547","RCS_SIZE":"LARGE","ELEMENT_SET_NO":"999","COUNTRY_CODE":"US","PERIOD":"95.592","TLE_LINE1":"1 47388U 21005AR  22283.41376079  .00000780  00000-0  71228-4 0  9991","OBJECT_TYPE":"PAYLOAD","LAUNCH_DATE":"2021-01-20","PERIAPSIS":"546.071","MEAN_MOTION_DOT":"0.00000780","ARG_OF_PERICENTER":"64.3211","CLASSIFICATION_TYPE":"U","BSTAR":"0.00007122800000","APOAPSIS":"548.330","REF_FRAME":"TEME","OBJECT_ID":"2021-005AR","GP_ID":"214674310","TLE_LINE2":"2 47388  53.0547 256.3652 0001631  64.3211 295.7947 15.06404119 95191","OBJECT_NAME":"STARLINK-2109","SITE":"AFETR","NORAD_CAT_ID":"47388","SEMIMAJOR_AXIS":"6925.336","TIME_SYSTEM":"UTC","FILE":"3600948","DECAY_DATE":null,"MEAN_ANOMALY":"295.7947"},{"MEAN_ANOMALY":"289.8737","DECAY_DATE":null,"FILE":"3601747","SEMIMAJOR_AXIS":"6925.350","TIME_SYSTEM":"UTC","SITE":"AFETR","NORAD_CAT_ID":"47389","TLE_LINE2":"2 47389  53.0534 235.5711 0001546  70.2419 289.8737 15.06399475 95508","OBJECT_NAME":"STARLINK-2110","GP_ID":"214717562","OBJECT_ID":"2021-005AS","REF_FRAME":"TEME","APOAPSIS":"548.286","BSTAR":"0.00017138000000","CLASSIFICATION_TYPE":"U","ARG_OF_PERICENTER":"70.2419","MEAN_MOTION_DOT":"0.00002272","PERIAPSIS":"546.145","LAUNCH_DATE":"2021-01-20","OBJECT_TYPE":"PAYLOAD","TLE_LINE1":"1 47389U 21005AS  22283.59158840  .00002272  00000-0  17138-3 0  9992","PERIOD":"95.592","COUNTRY_CODE":"US","ELEMENT_SET_NO":"999","RCS_SIZE":"LARGE","MEAN_MOTION_DDOT":"0.0000000000000","INCLINATION":"53.0534","EPHEMERIS_TYPE":"0","MEAN_MOTION":"15.06399475","MEAN_ELEMENT_THEORY":"SGP4","EPOCH":"2022-10-10T14:11:53.237760","ECCENTRICITY":"0.00015460","REV_AT_EPOCH":"9550","RA_OF_ASC_NODE":"235.5711","CENTER_NAME":"EARTH"},{"EPOCH":"2022-10-10T15:40:49.056384","ECCENTRICITY":"0.00017490","RA_OF_ASC_NODE":"255.3017","REV_AT_EPOCH":"9523","CENTER_NAME":"EARTH","MEAN_ELEMENT_THEORY":"SGP4","PERIOD":"95.592","COUNTRY_CODE":"US","RCS_SIZE":"LARGE","ELEMENT_SET_NO":"999","EPHEMERIS_TYPE":"0","MEAN_MOTION":"15.06402129","MEAN_MOTION_DDOT":"0.0000000000000","INCLINATION":"53.0555","TLE_LINE1":"1 47390U 21005AT  22283.65334556  .00001746  00000-0  13608-3 0  9994","ARG_OF_PERICENTER":"69.0776","MEAN_MOTION_DOT":"0.00001746","OBJECT_TYPE":"PAYLOAD","LAUNCH_DATE":"2021-01-20","PERIAPSIS":"545.996","REF_FRAME":"TEME","OBJECT_ID":"2021-005AT","GP_ID":"214716329","APOAPSIS":"548.418","CLASSIFICATION_TYPE":"U","BSTAR":"0.00013608000000","SITE":"AFETR","NORAD_CAT_ID":"47390","OBJECT_NAME":"STARLINK-2111","TLE_LINE2":"2 47390  53.0555 255.3017 0001749  69.0776 291.0400 15.06402129 95232","DECAY_DATE":null,"MEAN_ANOMALY":"291.0400","FILE":"3601747","SEMIMAJOR_AXIS":"6925.342","TIME_SYSTEM":"UTC"},{"BSTAR":"0.00011163000000","CLASSIFICATION_TYPE":"U","OBJECT_ID":"2021-005AU","GP_ID":"214676061","REF_FRAME":"TEME","APOAPSIS":"548.373","MEAN_MOTION_DOT":"0.00001382","LAUNCH_DATE":"2021-01-20","PERIAPSIS":"546.045","OBJECT_TYPE":"PAYLOAD","ARG_OF_PERICENTER":"63.3884","TIME_SYSTEM":"UTC","SEMIMAJOR_AXIS":"6925.344","DECAY_DATE":null,"MEAN_ANOMALY":"296.7277","FILE":"3600948","TLE_LINE2":"2 47391  53.0549 227.0430 0001681  63.3884 296.7277 15.06401413 95591","OBJECT_NAME":"STARLINK-2112","SITE":"AFETR","NORAD_CAT_ID":"47391","MEAN_ELEMENT_THEORY":"SGP4","REV_AT_EPOCH":"9559","RA_OF_ASC_NODE":"227.0430","CENTER_NAME":"EARTH","EPOCH":"2022-10-10T06:20:49.041600","ECCENTRICITY":"0.00016810","TLE_LINE1":"1 47391U 21005AU  22283.26445650  .00001382  00000-0  11163-3 0  9990","ELEMENT_SET_NO":"999","RCS_SIZE":"LARGE","MEAN_MOTION_DDOT":"0.0000000000000","INCLINATION":"53.0549","EPHEMERIS_TYPE":"0","MEAN_MOTION":"15.06401413","PERIOD":"95.592","COUNTRY_CODE":"US"},{"MEAN_ELEMENT_THEORY":"SGP4","EPOCH":"2022-10-10T07:57:42.990912","ECCENTRICITY":"0.00014320","REV_AT_EPOCH":"9621","RA_OF_ASC_NODE":"226.7439","CENTER_NAME":"EARTH","TLE_LINE1":"1 47392U 21005AV  22283.33174758  .00001331  00000-0  10820-3 0  9990","PERIOD":"95.592","COUNTRY_CODE":"US","ELEMENT_SET_NO":"999","RCS_SIZE":"LARGE","INCLINATION":"53.0537","MEAN_MOTION_DDOT":"0.0000000000000","EPHEMERIS_TYPE":"0","MEAN_MOTION":"15.06400503","GP_ID":"214682857","OBJECT_ID":"2021-005AV","REF_FRAME":"TEME","APOAPSIS":"548.204","BSTAR":"0.00010820000000","CLASSIFICATION_TYPE":"U","ARG_OF_PERICENTER":"97.6193","MEAN_MOTION_DOT":"0.00001331","PERIAPSIS":"546.220","LAUNCH_DATE":"2021-01-20","OBJECT_TYPE":"PAYLOAD","MEAN_ANOMALY":"262.4958","DECAY_DATE":null,"FILE":"3601206","TIME_SYSTEM":"UTC","SEMIMAJOR_AXIS":"6925.347","SITE":"AFETR","NORAD_CAT_ID":"47392","TLE_LINE2":"2 47392  53.0537 226.7439 0001432  97.6193 262.4958 15.06400503 96216","OBJECT_NAME":"STARLINK-2113"},{"MEAN_MOTION_DOT":"0.00003105","PERIAPSIS":"546.127","LAUNCH_DATE":"2021-01-20","OBJECT_TYPE":"PAYLOAD","ARG_OF_PERICENTER":"109.3431","BSTAR":"0.00022728000000","CLASSIFICATION_TYPE":"U","OBJECT_ID":"2021-005AW","GP_ID":"214717062","REF_FRAME":"TEME","APOAPSIS":"548.328","OBJECT_NAME":"STARLINK-2114","TLE_LINE2":"2 47393  53.0546 200.1760 0001589 109.3431 250.7730 15.06395499 96012","NORAD_CAT_ID":"47393","SITE":"AFETR","TIME_SYSTEM":"UTC","SEMIMAJOR_AXIS":"6925.362","DECAY_DATE":null,"MEAN_ANOMALY":"250.7730","FILE":"3601747","REV_AT_EPOCH":"9601","RA_OF_ASC_NODE":"200.1760","CENTER_NAME":"EARTH","EPOCH":"2022-10-10T18:08:50.690400","ECCENTRICITY":"0.00015890","MEAN_ELEMENT_THEORY":"SGP4","ELEMENT_SET_NO":"999","RCS_SIZE":"LARGE","INCLINATION":"53.0546","MEAN_MOTION_DDOT":"0.0000000000000","MEAN_MOTION":"15.06395499","EPHEMERIS_TYPE":"0","PERIOD":"95.592","COUNTRY_CODE":"US","TLE_LINE1":"1 47393U 21005AW  22283.75614225  .00003105  00000-0  22728-3 0  9996"}];
